COSMOS 1892             
1 18421U 87088A   25302.89659143  .00227403  17491-4  73729-3 0  9999
2 18421  82.4696  93.0367 0004750 322.0868  38.0069 15.90688866 84304
SL-14 R/B               
1 18749U 88001B   25303.12664909  .00000657  00000+0  73494-4 0  9994
2 18749  82.5113 318.1780 0016893 313.7648  46.2169 14.85353266 22643
COSMOS 1933             
1 18958U 88020A   25303.28013588  .00006334  00000+0  32279-3 0  9998
2 18958  82.5170  19.7975 0003097 299.0203  61.0719 15.16602801 30454
SL-3 R/B                
1 19046U 88032B   25303.23555603  .00008897  00000+0  43621-3 0  9993
2 19046  97.5042 282.2882 0026123 332.4822  27.5027 15.18060791 32308
SL-16 R/B               
1 19120U 88039B   25303.27067346 -.00000039  00000+0  43187-5 0  9999
2 19120  71.0158 344.3130 0021977 186.3507 173.7343 14.19586031939873
COSMOS 1953             
1 19210U 88050A   25303.24596364  .00008568  00000+0  32916-3 0  9996
2 19210  82.5067 289.2066 0010628 214.3484 145.7069 15.26237808 17876
SL-8 R/B                
1 19257U 88053B   25303.29518963  .00000350  00000+0  12226-3 0  9997
2 19257  74.0489 352.7920 0020618 209.1438 220.8837 14.38819804957849
COSMOS 1975             
1 19573U 88093A   25303.30536601  .00014163  00000+0  55826-3 0  9993
2 19573  82.5200 248.2729 0009361 272.6412  87.3754 15.25426132999508
SL-14 R/B               
1 19574U 88093B   25303.13746975  .00000583  00000+0  64467-4 0  9995
2 19574  82.5317 164.5836 0022217 108.6060   9.0200 14.85484025981653
SL-16 R/B               
1 19650U 88102B   25303.08796399  .00000252  00000+0  15133-3 0  9998
2 19650  70.9999  66.2866 0015477 217.1739 142.8314 14.16129371908403
INTERCOSMOS 24          
1 20261U 89080A   25303.12448459  .00000631  00000+0  18686-3 0  9997
2 20261  82.6098 189.3128 1187593 235.7259 112.5789 12.59346516650360
SL-14 R/B               
1 20262U 89080C   25303.29742001  .00000333  00000+0  90922-4 0  9999
2 20262  82.5909 256.9002 1231501 122.8108 249.7697 12.50369516643854
