CCSDS_OMM_VERS = 2.0
CREATION_DATE  = 
ORIGINATOR     = 

OBJECT_NAME    = COSMOS 1892
OBJECT_ID      = 1987-088A
CENTER_NAME    = EARTH
REF_FRAME      = TEME
TIME_SYSTEM    = UTC
MEAN_ELEMENT_THEORY = SGP/SGP4

EPOCH          = 2025-10-29T21:31:05.499552
MEAN_MOTION    = 15.90688866
ECCENTRICITY   = .00047509
INCLINATION    = 82.4696
RA_OF_ASC_NODE = 93.0367
ARG_OF_PERICENTER = 322.0868
MEAN_ANOMALY   = 38.0069

EPHEMERIS_TYPE = 0
CLASSIFICATION_TYPE = U
NORAD_CAT_ID   = 18421
ELEMENT_SET_NO = 999
REV_AT_EPOCH   = 8430
BSTAR          = .73729407E-3
MEAN_MOTION_DOT = .227403E-2
MEAN_MOTION_DDOT = .1749136E-4

CCSDS_OMM_VERS = 2.0
CREATION_DATE  = 
ORIGINATOR     = 

OBJECT_NAME    = SL-14 R/B
OBJECT_ID      = 1988-001B
CENTER_NAME    = EARTH
REF_FRAME      = TEME
TIME_SYSTEM    = UTC
MEAN_ELEMENT_THEORY = SGP/SGP4

EPOCH          = 2025-10-30T03:02:22.481376
MEAN_MOTION    = 14.85353266
ECCENTRICITY   = .00168939
INCLINATION    = 82.5113
RA_OF_ASC_NODE = 318.1780
ARG_OF_PERICENTER = 313.7648
MEAN_ANOMALY   = 46.2169

EPHEMERIS_TYPE = 0
CLASSIFICATION_TYPE = U
NORAD_CAT_ID   = 18749
ELEMENT_SET_NO = 999
REV_AT_EPOCH   = 2264
BSTAR          = .73494377E-4
MEAN_MOTION_DOT = .657E-5
MEAN_MOTION_DDOT = 0

CCSDS_OMM_VERS = 2.0
CREATION_DATE  = 
ORIGINATOR     = 

OBJECT_NAME    = COSMOS 1933
OBJECT_ID      = 1988-020A
CENTER_NAME    = EARTH
REF_FRAME      = TEME
TIME_SYSTEM    = UTC
MEAN_ELEMENT_THEORY = SGP/SGP4

EPOCH          = 2025-10-30T06:43:23.740032
MEAN_MOTION    = 15.16602801
ECCENTRICITY   = .00030976
INCLINATION    = 82.5170
RA_OF_ASC_NODE = 19.7975
ARG_OF_PERICENTER = 299.0203
MEAN_ANOMALY   = 61.0719

EPHEMERIS_TYPE = 0
CLASSIFICATION_TYPE = U
NORAD_CAT_ID   = 18958
ELEMENT_SET_NO = 999
REV_AT_EPOCH   = 3045
BSTAR          = .32279214E-3
MEAN_MOTION_DOT = .6334E-4
MEAN_MOTION_DDOT = 0

CCSDS_OMM_VERS = 2.0
CREATION_DATE  = 
ORIGINATOR     = 

OBJECT_NAME    = SL-3 R/B
OBJECT_ID      = 1988-032B
CENTER_NAME    = EARTH
REF_FRAME      = TEME
TIME_SYSTEM    = UTC
MEAN_ELEMENT_THEORY = SGP/SGP4

EPOCH          = 2025-10-30T05:39:12.040992
MEAN_MOTION    = 15.18060791
ECCENTRICITY   = .00261238
INCLINATION    = 97.5042
RA_OF_ASC_NODE = 282.2882
ARG_OF_PERICENTER = 332.4822
MEAN_ANOMALY   = 27.5027

EPHEMERIS_TYPE = 0
CLASSIFICATION_TYPE = U
NORAD_CAT_ID   = 19046
ELEMENT_SET_NO = 999
REV_AT_EPOCH   = 3230
BSTAR          = .43621276E-3
MEAN_MOTION_DOT = .8897E-4
MEAN_MOTION_DDOT = 0

CCSDS_OMM_VERS = 2.0
CREATION_DATE  = 
ORIGINATOR     = 

OBJECT_NAME    = SL-16 R/B
OBJECT_ID      = 1988-039B
CENTER_NAME    = EARTH
REF_FRAME      = TEME
TIME_SYSTEM    = UTC
MEAN_ELEMENT_THEORY = SGP/SGP4

EPOCH          = 2025-10-30T06:29:46.186944
MEAN_MOTION    = 14.19586031
ECCENTRICITY   = .0021977
INCLINATION    = 71.0158
RA_OF_ASC_NODE = 344.3130
ARG_OF_PERICENTER = 186.3507
MEAN_ANOMALY   = 173.7343

EPHEMERIS_TYPE = 0
CLASSIFICATION_TYPE = U
NORAD_CAT_ID   = 19120
ELEMENT_SET_NO = 999
REV_AT_EPOCH   = 93987
BSTAR          = .4318658E-5
MEAN_MOTION_DOT = -.39E-6
MEAN_MOTION_DDOT = 0

CCSDS_OMM_VERS = 2.0
CREATION_DATE  = 
ORIGINATOR     = 

OBJECT_NAME    = COSMOS 1953
OBJECT_ID      = 1988-050A
CENTER_NAME    = EARTH
REF_FRAME      = TEME
TIME_SYSTEM    = UTC
MEAN_ELEMENT_THEORY = SGP/SGP4

EPOCH          = 2025-10-30T05:54:11.258496
MEAN_MOTION    = 15.26237808
ECCENTRICITY   = .00106288
INCLINATION    = 82.5067
RA_OF_ASC_NODE = 289.2066
ARG_OF_PERICENTER = 214.3484
MEAN_ANOMALY   = 145.7069

EPHEMERIS_TYPE = 0
CLASSIFICATION_TYPE = U
NORAD_CAT_ID   = 19210
ELEMENT_SET_NO = 999
REV_AT_EPOCH   = 1787
BSTAR          = .32916185E-3
MEAN_MOTION_DOT = .8568E-4
MEAN_MOTION_DDOT = 0

CCSDS_OMM_VERS = 2.0
CREATION_DATE  = 
ORIGINATOR     = 

OBJECT_NAME    = SL-8 R/B
OBJECT_ID      = 1988-053B
CENTER_NAME    = EARTH
REF_FRAME      = TEME
TIME_SYSTEM    = UTC
MEAN_ELEMENT_THEORY = SGP/SGP4

EPOCH          = 2025-10-30T07:05:04.384032
MEAN_MOTION    = 14.38819804
ECCENTRICITY   = .00206186
INCLINATION    = 74.0489
RA_OF_ASC_NODE = 352.7920
ARG_OF_PERICENTER = 209.1438
MEAN_ANOMALY   = 220.8837

EPHEMERIS_TYPE = 0
CLASSIFICATION_TYPE = U
NORAD_CAT_ID   = 19257
ELEMENT_SET_NO = 999
REV_AT_EPOCH   = 95784
BSTAR          = .12226404E-3
MEAN_MOTION_DOT = .35E-5
MEAN_MOTION_DDOT = 0

CCSDS_OMM_VERS = 2.0
CREATION_DATE  = 
ORIGINATOR     = 

OBJECT_NAME    = COSMOS 1975
OBJECT_ID      = 1988-093A
CENTER_NAME    = EARTH
REF_FRAME      = TEME
TIME_SYSTEM    = UTC
MEAN_ELEMENT_THEORY = SGP/SGP4

EPOCH          = 2025-10-30T07:19:43.623264
MEAN_MOTION    = 15.25426132
ECCENTRICITY   = .0009361
INCLINATION    = 82.5200
RA_OF_ASC_NODE = 248.2729
ARG_OF_PERICENTER = 272.6412
MEAN_ANOMALY   = 87.3754

EPHEMERIS_TYPE = 0
CLASSIFICATION_TYPE = U
NORAD_CAT_ID   = 19573
ELEMENT_SET_NO = 999
REV_AT_EPOCH   = 99950
BSTAR          = .55826194E-3
MEAN_MOTION_DOT = .14163E-3
MEAN_MOTION_DDOT = 0

CCSDS_OMM_VERS = 2.0
CREATION_DATE  = 
ORIGINATOR     = 

OBJECT_NAME    = SL-14 R/B
OBJECT_ID      = 1988-093B
CENTER_NAME    = EARTH
REF_FRAME      = TEME
TIME_SYSTEM    = UTC
MEAN_ELEMENT_THEORY = SGP/SGP4

EPOCH          = 2025-10-30T03:17:57.386400
MEAN_MOTION    = 14.85484025
ECCENTRICITY   = .00222177
INCLINATION    = 82.5317
RA_OF_ASC_NODE = 164.5836
ARG_OF_PERICENTER = 108.6060
MEAN_ANOMALY   = 9.0200

EPHEMERIS_TYPE = 0
CLASSIFICATION_TYPE = U
NORAD_CAT_ID   = 19574
ELEMENT_SET_NO = 999
REV_AT_EPOCH   = 98165
BSTAR          = .64466508E-4
MEAN_MOTION_DOT = .583E-5
MEAN_MOTION_DDOT = 0

CCSDS_OMM_VERS = 2.0
CREATION_DATE  = 
ORIGINATOR     = 

OBJECT_NAME    = SL-16 R/B
OBJECT_ID      = 1988-102B
CENTER_NAME    = EARTH
REF_FRAME      = TEME
TIME_SYSTEM    = UTC
MEAN_ELEMENT_THEORY = SGP/SGP4

EPOCH          = 2025-10-30T02:06:40.088736
MEAN_MOTION    = 14.16129371
ECCENTRICITY   = .0015477
INCLINATION    = 70.9999
RA_OF_ASC_NODE = 66.2866
ARG_OF_PERICENTER = 217.1739
MEAN_ANOMALY   = 142.8314

EPHEMERIS_TYPE = 0
CLASSIFICATION_TYPE = U
NORAD_CAT_ID   = 19650
ELEMENT_SET_NO = 999
REV_AT_EPOCH   = 90840
BSTAR          = .15133039E-3
MEAN_MOTION_DOT = .252E-5
MEAN_MOTION_DDOT = 0

CCSDS_OMM_VERS = 2.0
CREATION_DATE  = 
ORIGINATOR     = 

OBJECT_NAME    = INTERCOSMOS 24
OBJECT_ID      = 1989-080A
CENTER_NAME    = EARTH
REF_FRAME      = TEME
TIME_SYSTEM    = UTC
MEAN_ELEMENT_THEORY = SGP/SGP4

EPOCH          = 2025-10-30T02:59:15.468576
MEAN_MOTION    = 12.59346516
ECCENTRICITY   = .11875933
INCLINATION    = 82.6098
RA_OF_ASC_NODE = 189.3128
ARG_OF_PERICENTER = 235.7259
MEAN_ANOMALY   = 112.5789

EPHEMERIS_TYPE = 0
CLASSIFICATION_TYPE = U
NORAD_CAT_ID   = 20261
ELEMENT_SET_NO = 999
REV_AT_EPOCH   = 65036
BSTAR          = .18686464E-3
MEAN_MOTION_DOT = .631E-5
MEAN_MOTION_DDOT = 0

CCSDS_OMM_VERS = 2.0
CREATION_DATE  = 
ORIGINATOR     = 

OBJECT_NAME    = SL-14 R/B
OBJECT_ID      = 1989-080C
CENTER_NAME    = EARTH
REF_FRAME      = TEME
TIME_SYSTEM    = UTC
MEAN_ELEMENT_THEORY = SGP/SGP4

EPOCH          = 2025-10-30T07:08:17.088864
MEAN_MOTION    = 12.50369516
ECCENTRICITY   = .12315014
INCLINATION    = 82.5909
RA_OF_ASC_NODE = 256.9002
ARG_OF_PERICENTER = 122.8108
MEAN_ANOMALY   = 249.7697

EPHEMERIS_TYPE = 0
CLASSIFICATION_TYPE = U
NORAD_CAT_ID   = 20262
ELEMENT_SET_NO = 999
REV_AT_EPOCH   = 64385
BSTAR          = .90921752E-4
MEAN_MOTION_DOT = .333E-5
MEAN_MOTION_DDOT = 0

